KUIPER-00035            
1 63748U 25088AA  25201.87212060  .00008998  00000+0  50745-3 0  9994
2 63748  51.8792  62.5311 0004011  68.0612 292.0790 15.13856627 13130
KUIPER-00037            
1 63749U 25088AB  25201.91668981 -.00001662  00000+0 -71377-4 0  9995
2 63749  51.8845  61.7696 0003124 351.1370 106.2585 15.15112521  5496
KUIPER-00038            
1 63750U 25088AC  25201.87561575  .00014486  00000+0  39575-3 0  9992
2 63750  51.8710  57.3422 0004774  55.3267 304.8169 15.37629918 12991
KUIPER-00039            
1 64500U 25134A   25201.28144234  .00014891  00000+0  44434-3 0  9992
2 64500  51.8664 201.7638 0007414 210.0424 150.0137 15.34824068  5365
KUIPER-00040            
1 64501U 25134B   25201.91668981 -.00069412  00000+0 -23413-2 0  9997
2 64501  51.8656 198.9545 0011108 222.3319 291.9105 15.30264318  4322
KUIPER-00041            
1 64502U 25134C   25201.91668981 -.01162306  00000+0 -46267-1 0  9996
2 64502  51.8694 198.9697 0009127 214.5948 271.6426 15.27823786  2103
KUIPER-00042            
1 64503U 25134D   25201.28667829  .00026001  00000+0  77282-3 0  9998
2 64503  51.8629 201.7919 0008635 210.1069 149.9421 15.34552406  5360
KUIPER-00043            
1 64504U 25134E   25201.28276563  .00024929  00000+0  73726-3 0  9996
2 64504  51.8680 201.7745 0007852 204.2900 155.7716 15.34740747  5362
